BANDWAGON-2 OBJECT D    
1 62380U 24247D   26068.52261193  .00011259  00000+0  40119-3 0  9994
2 62380  44.9954 115.6710 0003488 351.1453   8.9368 15.29076102 67732
STARLINK-34058          
1 63818U 25092Q   26068.33033164  .00033672  00000+0  12273-2 0  9996
2 63818  43.0010 174.2377 0000346 272.6613  87.4199 15.27587386 48616
